0 DELTA 2 R/B(2)
1 23770U 96003C   13282.94975170 -.00000118  00000-0  00000+0 0  5160
2 23770 021.3275 027.9830 6892459 112.2830 348.0835 02.19762230142459
0 DELTA 2 R/B(2)
1 23770U 96003C   13286.14250236 -.00000086  00000-0  00000+0 0  5170
2 23770 021.3305 027.0659 6892174 113.9178 353.9787 02.19762531142523
0 DELTA 2 R/B(2)
1 23770U 96003C   13289.32103995 -.00000051  00000-0  00000+0 0  5185
2 23770 021.3333 026.1556 6891891 115.5396 348.6405 02.19762722142592
0 DELTA 2 R/B(2)
1 23770U 96003C   13292.51835944 -.00000099  00000-0  00000+0 0  5199
2 23770 021.3359 025.2423 6891720 117.1678 358.1704 02.19762535142663
0 DELTA 2 R/B(2)
1 23770U 96003C   13295.66246713 -.00000143  00000-0  00000+0 0  5200
2 23770 021.3436 024.3015 6892211 118.8184 325.5906 02.19762404142737
